{
  "norad_id": 66823,
  "name": "STARLINK-35957",
  "history": [
    {
      "epoch": "2026-03-28T21:11:21.424704Z",
      "apogee_km": 574.1170686026089,
      "perigee_km": 570.0766196596614,
      "latitude_deg": 6.697596178621571e-06,
      "longitude_deg": 141.81118390638989,
      "height_km": 574.5316500146378,
      "semi_major_axis_km": 6950.233844131135,
      "eccentricity": 0.00029067,
      "inclination_deg": 69.9999,
      "raan_deg": 285.9474,
      "arg_perigee_deg": 269.7883,
      "mean_anomaly_deg": 90.2943,
      "mean_motion_rev_day": 14.98316757
    },
    {
      "epoch": "2026-03-28T22:47:29.491296Z",
      "apogee_km": 574.1202393040376,
      "perigee_km": 570.0557477278298,
      "latitude_deg": 4.512216892534702e-05,
      "longitude_deg": 117.54528530098528,
      "height_km": 574.6316994801816,
      "semi_major_axis_km": 6950.224993515933,
      "eccentricity": 0.0002924,
      "inclination_deg": 70.0002,
      "raan_deg": 285.7809,
      "arg_perigee_deg": 266.7189,
      "mean_anomaly_deg": 93.3636,
      "mean_motion_rev_day": 14.98319619
    },
    {
      "epoch": "2026-03-29T22:49:30.821088Z",
      "apogee_km": 573.9541659825363,
      "perigee_km": 570.1148912301342,
      "latitude_deg": -5.696651646452345e-06,
      "longitude_deg": 113.52559747113082,
      "height_km": 574.3467509726603,
      "semi_major_axis_km": 6950.1715286063345,
      "eccentricity": 0.0002762,
      "inclination_deg": 70.0002,
      "raan_deg": 283.2538,
      "arg_perigee_deg": 273.4343,
      "mean_anomaly_deg": 86.65,
      "mean_motion_rev_day": 14.98336908
    },
    {
      "epoch": "2026-03-29T22:49:30.821952Z",
      "apogee_km": 573.9544439893971,
      "perigee_km": 570.1146132232725,
      "latitude_deg": -1.3695921229910133e-06,
      "longitude_deg": 113.5255954275775,
      "height_km": 574.3467343160105,
      "semi_major_axis_km": 6950.1715286063345,
      "eccentricity": 0.00027624,
      "inclination_deg": 70.0002,
      "raan_deg": 283.2538,
      "arg_perigee_deg": 273.4343,
      "mean_anomaly_deg": 86.65,
      "mean_motion_rev_day": 14.98336908
    },
    {
      "epoch": "2026-03-30T13:14:42.828576Z",
      "apogee_km": 573.9642370016054,
      "perigee_km": 570.0393546208352,
      "latitude_deg": 3.587834423257834e-06,
      "longitude_deg": -104.88163814760898,
      "height_km": 574.3175871409394,
      "semi_major_axis_km": 6950.13879581122,
      "eccentricity": 0.00028236,
      "inclination_deg": 70.0002,
      "raan_deg": 281.7388,
      "arg_perigee_deg": 273.2571,
      "mean_anomaly_deg": 86.8265,
      "mean_motion_rev_day": 14.98347493
    },
    {
      "epoch": "2026-03-30T21:15:22.860000Z",
      "apogee_km": 573.9542186638355,
      "perigee_km": 570.045878595909,
      "latitude_deg": 5.05961979581044e-05,
      "longitude_deg": 133.78077665323642,
      "height_km": 574.301678347486,
      "semi_major_axis_km": 6950.137048629872,
      "eccentricity": 0.00028117,
      "inclination_deg": 70.0,
      "raan_deg": 280.897,
      "arg_perigee_deg": 273.6859,
      "mean_anomaly_deg": 86.3979,
      "mean_motion_rev_day": 14.98348058
    }
  ]
}